{"fetched_at":"2026-07-11T06:35:39.482Z","source":"https://celestrak.org/NORAD/elements/gp.php?NAME=O3B&FORMAT=JSON","constellation":"o3b-mpower","records":[{"OBJECT_NAME":"O3B MPOWER F1","OBJECT_ID":"2022-174A","EPOCH":"2026-07-10T15:40:10.725024","CLASSIFICATION_TYPE":"U","MEAN_MOTION":5.00114764,"ECCENTRICITY":0.0006602,"INCLINATION":0.0497,"RA_OF_ASC_NODE":339.6247,"ARG_OF_PERICENTER":140.8053,"MEAN_ANOMALY":99.7928,"EPHEMERIS_TYPE":0,"NORAD_CAT_ID":54755,"ELEMENT_SET_NO":999,"REV_AT_EPOCH":6653,"BSTAR":0,"MEAN_MOTION_DOT":-1.3e-7,"MEAN_MOTION_DDOT":0},{"OBJECT_NAME":"O3B MPOWER F2","OBJECT_ID":"2022-174B","EPOCH":"2026-07-10T16:44:03.478272","CLASSIFICATION_TYPE":"U","MEAN_MOTION":5.00114886,"ECCENTRICITY":0.0005803,"INCLINATION":0.0456,"RA_OF_ASC_NODE":339.8271,"ARG_OF_PERICENTER":124.3457,"MEAN_ANOMALY":255.8914,"EPHEMERIS_TYPE":0,"NORAD_CAT_ID":54756,"ELEMENT_SET_NO":999,"REV_AT_EPOCH":6662,"BSTAR":0,"MEAN_MOTION_DOT":-1.3e-7,"MEAN_MOTION_DDOT":0},{"OBJECT_NAME":"O3B MPOWER F4","OBJECT_ID":"2023-059A","EPOCH":"2026-07-10T13:28:42.731616","CLASSIFICATION_TYPE":"U","MEAN_MOTION":5.00115381,"ECCENTRICITY":0.0007724,"INCLINATION":0.063,"RA_OF_ASC_NODE":350.6493,"ARG_OF_PERICENTER":122.3053,"MEAN_ANOMALY":247.1268,"EPHEMERIS_TYPE":0,"NORAD_CAT_ID":56367,"ELEMENT_SET_NO":999,"REV_AT_EPOCH":5977,"BSTAR":0,"MEAN_MOTION_DOT":-1.3e-7,"MEAN_MOTION_DDOT":0},{"OBJECT_NAME":"O3B MPOWER F3","OBJECT_ID":"2023-059B","EPOCH":"2026-07-10T14:16:26.088960","CLASSIFICATION_TYPE":"U","MEAN_MOTION":5.00116437,"ECCENTRICITY":0.0006678,"INCLINATION":0.0637,"RA_OF_ASC_NODE":349.9452,"ARG_OF_PERICENTER":116.2313,"MEAN_ANOMALY":253.8969,"EPHEMERIS_TYPE":0,"NORAD_CAT_ID":56368,"ELEMENT_SET_NO":999,"REV_AT_EPOCH":5589,"BSTAR":0,"MEAN_MOTION_DOT":-1.3e-7,"MEAN_MOTION_DDOT":0},{"OBJECT_NAME":"O3B MPOWER F5","OBJECT_ID":"2023-175A","EPOCH":"2026-07-10T11:54:01.287072","CLASSIFICATION_TYPE":"U","MEAN_MOTION":5.00115894,"ECCENTRICITY":0.0005446,"INCLINATION":0.0517,"RA_OF_ASC_NODE":9.5148,"ARG_OF_PERICENTER":117.625,"MEAN_ANOMALY":232.9098,"EPHEMERIS_TYPE":0,"NORAD_CAT_ID":58346,"ELEMENT_SET_NO":999,"REV_AT_EPOCH":5060,"BSTAR":0,"MEAN_MOTION_DOT":-1.3e-7,"MEAN_MOTION_DDOT":0},{"OBJECT_NAME":"O3B MPOWER F6","OBJECT_ID":"2023-175B","EPOCH":"2026-07-10T14:18:42.385824","CLASSIFICATION_TYPE":"U","MEAN_MOTION":5.00115764,"ECCENTRICITY":0.0004436,"INCLINATION":0.0537,"RA_OF_ASC_NODE":1.2249,"ARG_OF_PERICENTER":106.314,"MEAN_ANOMALY":252.5094,"EPHEMERIS_TYPE":0,"NORAD_CAT_ID":58347,"ELEMENT_SET_NO":999,"REV_AT_EPOCH":4952,"BSTAR":0,"MEAN_MOTION_DOT":-1.3e-7,"MEAN_MOTION_DDOT":0},{"OBJECT_NAME":"O3B MPOWER F7","OBJECT_ID":"2024-244A","EPOCH":"2026-07-10T15:54:19.130688","CLASSIFICATION_TYPE":"U","MEAN_MOTION":5.00115255,"ECCENTRICITY":0.0005942,"INCLINATION":0.0663,"RA_OF_ASC_NODE":343.6377,"ARG_OF_PERICENTER":121.6972,"MEAN_ANOMALY":254.7305,"EPHEMERIS_TYPE":0,"NORAD_CAT_ID":62362,"ELEMENT_SET_NO":999,"REV_AT_EPOCH":2769,"BSTAR":0,"MEAN_MOTION_DOT":-1.3e-7,"MEAN_MOTION_DDOT":0},{"OBJECT_NAME":"O3B MPOWER F8","OBJECT_ID":"2024-244B","EPOCH":"2026-07-10T15:06:43.359264","CLASSIFICATION_TYPE":"U","MEAN_MOTION":5.00115019,"ECCENTRICITY":0.0005793,"INCLINATION":0.0143,"RA_OF_ASC_NODE":358.4365,"ARG_OF_PERICENTER":99.5939,"MEAN_ANOMALY":262.0351,"EPHEMERIS_TYPE":0,"NORAD_CAT_ID":62363,"ELEMENT_SET_NO":999,"REV_AT_EPOCH":2204,"BSTAR":0,"MEAN_MOTION_DOT":-1.3e-7,"MEAN_MOTION_DDOT":0},{"OBJECT_NAME":"O3B MPOWER F9","OBJECT_ID":"2025-153A","EPOCH":"2026-07-10T13:30:48.040992","CLASSIFICATION_TYPE":"U","MEAN_MOTION":5.00115675,"ECCENTRICITY":0.0006675,"INCLINATION":0.0608,"RA_OF_ASC_NODE":6.256,"ARG_OF_PERICENTER":121.6489,"MEAN_ANOMALY":232.1554,"EPHEMERIS_TYPE":0,"NORAD_CAT_ID":64866,"ELEMENT_SET_NO":999,"REV_AT_EPOCH":2073,"BSTAR":0,"MEAN_MOTION_DOT":-1.3e-7,"MEAN_MOTION_DDOT":0},{"OBJECT_NAME":"O3B MPOWER F10","OBJECT_ID":"2025-153B","EPOCH":"2026-07-10T12:41:54.343680","CLASSIFICATION_TYPE":"U","MEAN_MOTION":5.00114868,"ECCENTRICITY":0.0002326,"INCLINATION":0.058,"RA_OF_ASC_NODE":2.7075,"ARG_OF_PERICENTER":245.1457,"MEAN_ANOMALY":112.1219,"EPHEMERIS_TYPE":0,"NORAD_CAT_ID":64867,"ELEMENT_SET_NO":999,"REV_AT_EPOCH":2320,"BSTAR":0,"MEAN_MOTION_DOT":-1.3e-7,"MEAN_MOTION_DDOT":0}]}
