O3B MPOWER F1           
1 54755U 22174A   26191.65290191 -.00000013  00000+0  00000+0 0  9997
2 54755   0.0497 339.6247 0006602 140.8053  99.7928  5.00114764 66539
O3B MPOWER F2           
1 54756U 22174B   26191.69726248 -.00000013  00000+0  00000+0 0  9999
2 54756   0.0456 339.8271 0005803 124.3457 255.8914  5.00114886 66626
O3B MPOWER F4           
1 56367U 23059A   26191.56160569 -.00000013  00000+0  00000+0 0  9996
2 56367   0.0630 350.6493 0007724 122.3053 247.1268  5.00115381 59776
O3B MPOWER F3           
1 56368U 23059B   26191.59474640 -.00000013  00000+0  00000+0 0  9998
2 56368   0.0637 349.9452 0006678 116.2313 253.8969  5.00116437 55892
O3B MPOWER F5           
1 58346U 23175A   26191.49584823 -.00000013  00000+0  00000+0 0  9999
2 58346   0.0517   9.5148 0005446 117.6250 232.9098  5.00115894 50606
O3B MPOWER F6           
1 58347U 23175B   26191.59632391 -.00000013  00000+0  00000+0 0  9995
2 58347   0.0537   1.2249 0004436 106.3140 252.5094  5.00115764 49520
O3B MPOWER F7           
1 62362U 24244A   26191.66272142 -.00000013  00000+0  00000+0 0  9997
2 62362   0.0663 343.6377 0005942 121.6972 254.7305  5.00115255 27691
O3B MPOWER F8           
1 62363U 24244B   26191.62966851 -.00000013  00000+0  00000+0 0  9991
2 62363   0.0143 358.4365 0005793  99.5939 262.0351  5.00115019 22041
O3B MPOWER F9           
1 64866U 25153A   26191.56305603 -.00000013  00000+0  00000+0 0  9996
2 64866   0.0608   6.2560 0006675 121.6489 232.1554  5.00115675 20734
O3B MPOWER F10          
1 64867U 25153B   26191.52910120 -.00000013  00000+0  00000+0 0  9999
2 64867   0.0580   2.7075 0002326 245.1457 112.1219  5.00114868 23205
